start=new Date('2022-02-04T00:00:00.000Z').valueOf();
sats=[{"FILE":"3291273","SITE":"AFETR","MEAN_ANOMALY":"279.7855","RA_OF_ASC_NODE":"6.8630","PERIAPSIS":"546.298","OBJECT_TYPE":"PAYLOAD","MEAN_MOTION_DDOT":"0.0000000000000","NORAD_CAT_ID":"45407","ARG_OF_PERICENTER":"80.3288","INCLINATION":"53.0583","DECAY_DATE":null,"LAUNCH_DATE":"2020-03-18","TLE_LINE2":"2 45407  53.0583   6.8630 0001360  80.3288 279.7855 15.06391451104562","RCS_SIZE":"LARGE","CENTER_NAME":"EARTH","TLE_LINE1":"1 45407U 20019AZ  22034.92752781  .00001045  00000-0  89032-4 0  9990","MEAN_MOTION":"15.06391451","EPOCH":"2022-02-03T22:15:38.402784","APOAPSIS":"548.182","ELEMENT_SET_NO":"999","COUNTRY_CODE":"US","MEAN_MOTION_DOT":"0.00001045","SEMIMAJOR_AXIS":"6925.375","TIME_SYSTEM":"UTC","MEAN_ELEMENT_THEORY":"SGP4","ECCENTRICITY":"0.00013600","OBJECT_ID":"2020-019AZ","REV_AT_EPOCH":"10456","EPHEMERIS_TYPE":"0","OBJECT_NAME":"STARLINK-1275","REF_FRAME":"TEME","PERIOD":"95.593","BSTAR":"0.00008903200000","CLASSIFICATION_TYPE":"U","GP_ID":"195258866"},{"OBJECT_TYPE":"PAYLOAD","NORAD_CAT_ID":"45408","MEAN_MOTION_DDOT":"0.0000000000000","ARG_OF_PERICENTER":"64.5823","PERIAPSIS":"546.115","RA_OF_ASC_NODE":"37.6952","MEAN_ANOMALY":"295.5331","FILE":"3291273","SITE":"AFETR","CENTER_NAME":"EARTH","RCS_SIZE":"LARGE","TLE_LINE2":"2 45408  53.0546  37.6952 0001594  64.5823 295.5331 15.06398398104123","LAUNCH_DATE":"2020-03-18","DECAY_DATE":null,"INCLINATION":"53.0546","OBJECT_ID":"2020-019BA","ECCENTRICITY":"0.00015940","REV_AT_EPOCH":"10412","SEMIMAJOR_AXIS":"6925.353","MEAN_ELEMENT_THEORY":"SGP4","TIME_SYSTEM":"UTC","ELEMENT_SET_NO":"999","COUNTRY_CODE":"US","MEAN_MOTION_DOT":"-0.00000037","EPOCH":"2022-02-03T17:47:38.169600","MEAN_MOTION":"15.06398398","TLE_LINE1":"1 45408U 20019BA  22034.74141400 -.00000037  00000-0  16429-4 0  9992","APOAPSIS":"548.322","CLASSIFICATION_TYPE":"U","GP_ID":"195257115","REF_FRAME":"TEME","BSTAR":"0.00001642900000","PERIOD":"95.592","OBJECT_NAME":"STARLINK-1278","EPHEMERIS_TYPE":"0"},{"EPHEMERIS_TYPE":"0","OBJECT_NAME":"STARLINK-1282","REF_FRAME":"TEME","BSTAR":"-0.00000063929000","PERIOD":"95.592","CLASSIFICATION_TYPE":"U","GP_ID":"195232881","MEAN_MOTION":"15.06398310","EPOCH":"2022-02-03T08:07:45.671520","TLE_LINE1":"1 45409U 20019BB  22034.33872305 -.00000291  00000-0 -63929-6 0  9995","APOAPSIS":"548.273","MEAN_MOTION_DOT":"-0.00000291","COUNTRY_CODE":"US","ELEMENT_SET_NO":"999","SEMIMAJOR_AXIS":"6925.354","MEAN_ELEMENT_THEORY":"SGP4","TIME_SYSTEM":"UTC","OBJECT_ID":"2020-019BB","ECCENTRICITY":"0.00015220","REV_AT_EPOCH":"10448","INCLINATION":"53.0542","LAUNCH_DATE":"2020-03-18","DECAY_DATE":null,"TLE_LINE2":"2 45409  53.0542   9.5075 0001522  66.7944 293.3205 15.06398310104482","CENTER_NAME":"EARTH","RCS_SIZE":"LARGE","FILE":"3291268","SITE":"AFETR","MEAN_ANOMALY":"293.3205","PERIAPSIS":"546.165","RA_OF_ASC_NODE":"9.5075","OBJECT_TYPE":"PAYLOAD","NORAD_CAT_ID":"45409","MEAN_MOTION_DDOT":"0.0000000000000","ARG_OF_PERICENTER":"66.7944"},{"EPHEMERIS_TYPE":"0","OBJECT_NAME":"STARLINK-1285","BSTAR":"0.00005709300000","PERIOD":"91.327","REF_FRAME":"TEME","CLASSIFICATION_TYPE":"U","GP_ID":"195258114","APOAPSIS":"340.828","EPOCH":"2022-02-03T21:12:14.715360","MEAN_MOTION":"15.76745051","TLE_LINE1":"1 45410U 20019BC  22034.88350365  .00008706  00000-0  57093-4 0  9994","COUNTRY_CODE":"US","ELEMENT_SET_NO":"999","MEAN_MOTION_DOT":"0.00008706","TIME_SYSTEM":"UTC","MEAN_ELEMENT_THEORY":"SGP4","SEMIMAJOR_AXIS":"6717.807","REV_AT_EPOCH":"10598","OBJECT_ID":"2020-019BC","ECCENTRICITY":"0.00017210","INCLINATION":"53.0501","LAUNCH_DATE":"2020-03-18","DECAY_DATE":null,"TLE_LINE2":"2 45410  53.0501 264.5034 0001721  37.7973 322.3167 15.76745051105989","RCS_SIZE":"LARGE","CENTER_NAME":"EARTH","SITE":"AFETR","FILE":"3291273","MEAN_ANOMALY":"322.3167","PERIAPSIS":"338.516","RA_OF_ASC_NODE":"264.5034","OBJECT_TYPE":"PAYLOAD","MEAN_MOTION_DDOT":"0.0000000000000","ARG_OF_PERICENTER":"37.7973","NORAD_CAT_ID":"45410"},{"CENTER_NAME":"EARTH","RCS_SIZE":"LARGE","TLE_LINE2":"2 45411  53.0558   8.2440 0001463  75.4846 284.6305 15.06392217104547","DECAY_DATE":null,"LAUNCH_DATE":"2020-03-18","INCLINATION":"53.0558","OBJECT_TYPE":"PAYLOAD","MEAN_MOTION_DDOT":"0.0000000000000","NORAD_CAT_ID":"45411","ARG_OF_PERICENTER":"75.4846","PERIAPSIS":"546.224","RA_OF_ASC_NODE":"8.2440","MEAN_ANOMALY":"284.6305","FILE":"3291273","SITE":"AFETR","CLASSIFICATION_TYPE":"U","GP_ID":"195258367","REF_FRAME":"TEME","BSTAR":"0.00009056000000","PERIOD":"95.593","OBJECT_NAME":"STARLINK-1293","EPHEMERIS_TYPE":"0","OBJECT_ID":"2020-019BD","ECCENTRICITY":"0.00014630","REV_AT_EPOCH":"10454","SEMIMAJOR_AXIS":"6925.372","MEAN_ELEMENT_THEORY":"SGP4","TIME_SYSTEM":"UTC","COUNTRY_CODE":"US","MEAN_MOTION_DOT":"0.00001067","ELEMENT_SET_NO":"999","MEAN_MOTION":"15.06392217","EPOCH":"2022-02-03T14:51:10.286784","TLE_LINE1":"1 45411U 20019BD  22034.61886906  .00001067  00000-0  90560-4 0  9990","APOAPSIS":"548.251"},{"RA_OF_ASC_NODE":"6.9256","PERIAPSIS":"546.014","OBJECT_TYPE":"PAYLOAD","ARG_OF_PERICENTER":"69.7014","MEAN_MOTION_DDOT":"0.0000000000000","NORAD_CAT_ID":"45412","SITE":"AFETR","FILE":"3291273","MEAN_ANOMALY":"290.4156","TLE_LINE2":"2 45412  53.0562   6.9256 0001680  69.7014 290.4156 15.06411824104564","RCS_SIZE":"LARGE","CENTER_NAME":"EARTH","INCLINATION":"53.0562","DECAY_DATE":null,"LAUNCH_DATE":"2020-03-18","TIME_SYSTEM":"UTC","MEAN_ELEMENT_THEORY":"SGP4","SEMIMAJOR_AXIS":"6925.312","REV_AT_EPOCH":"10456","OBJECT_ID":"2020-019BE","ECCENTRICITY":"0.00016800","APOAPSIS":"548.341","TLE_LINE1":"1 45412U 20019BE  22034.91740450  .00002117  00000-0  16096-3 0  9995","MEAN_MOTION":"15.06411824","EPOCH":"2022-02-03T22:01:03.748800","MEAN_MOTION_DOT":"0.00002117","COUNTRY_CODE":"US","ELEMENT_SET_NO":"999","PERIOD":"95.591","BSTAR":"0.00016096000000","REF_FRAME":"TEME","GP_ID":"195257615","CLASSIFICATION_TYPE":"U","EPHEMERIS_TYPE":"0","OBJECT_NAME":"STARLINK-1296"},{"REV_AT_EPOCH":"10461","ECCENTRICITY":"0.00014300","OBJECT_ID":"2020-019BF","MEAN_ELEMENT_THEORY":"SGP4","TIME_SYSTEM":"UTC","SEMIMAJOR_AXIS":"6925.370","COUNTRY_CODE":"US","ELEMENT_SET_NO":"999","MEAN_MOTION_DOT":"-0.00000038","APOAPSIS":"548.225","EPOCH":"2022-02-03T14:45:50.966208","MEAN_MOTION":"15.06393010","TLE_LINE1":"1 45413U 20019BF  22034.61517322 -.00000038  00000-0  16364-4 0  9993","CLASSIFICATION_TYPE":"U","GP_ID":"195257865","BSTAR":"0.00001636400000","PERIOD":"95.593","REF_FRAME":"TEME","OBJECT_NAME":"STARLINK-1298","EPHEMERIS_TYPE":"0","NORAD_CAT_ID":"45413","OBJECT_TYPE":"PAYLOAD","MEAN_MOTION_DDOT":"0.0000000000000","ARG_OF_PERICENTER":"73.5655","PERIAPSIS":"546.245","RA_OF_ASC_NODE":"8.2717","MEAN_ANOMALY":"286.5491","SITE":"AFETR","FILE":"3291273","CENTER_NAME":"EARTH","RCS_SIZE":"LARGE","TLE_LINE2":"2 45413  53.0552   8.2717 0001430  73.5655 286.5491 15.06393010104618","LAUNCH_DATE":"2020-03-18","DECAY_DATE":null,"INCLINATION":"53.0552"},{"REF_FRAME":"TEME","PERIOD":"95.592","BSTAR":"0.00009588500000","GP_ID":"195258614","CLASSIFICATION_TYPE":"U","EPHEMERIS_TYPE":"0","OBJECT_NAME":"STARLINK-1309","SEMIMAJOR_AXIS":"6925.327","MEAN_ELEMENT_THEORY":"SGP4","TIME_SYSTEM":"UTC","OBJECT_ID":"2020-019BG","ECCENTRICITY":"0.00013990","REV_AT_EPOCH":"10454","TLE_LINE1":"1 45414U 20019BG  22034.86580253  .00001147  00000-0  95885-4 0  9990","EPOCH":"2022-02-03T20:46:45.338592","MEAN_MOTION":"15.06406934","APOAPSIS":"548.161","COUNTRY_CODE":"US","ELEMENT_SET_NO":"999","MEAN_MOTION_DOT":"0.00001147","TLE_LINE2":"2 45414  53.0542   7.1436 0001399  84.4268 275.6881 15.06406934104543","CENTER_NAME":"EARTH","RCS_SIZE":"LARGE","INCLINATION":"53.0542","DECAY_DATE":null,"LAUNCH_DATE":"2020-03-18","RA_OF_ASC_NODE":"7.1436","PERIAPSIS":"546.223","NORAD_CAT_ID":"45414","OBJECT_TYPE":"PAYLOAD","MEAN_MOTION_DDOT":"0.0000000000000","ARG_OF_PERICENTER":"84.4268","FILE":"3291273","SITE":"AFETR","MEAN_ANOMALY":"275.6881"},{"OBJECT_NAME":"STARLINK-1316","EPHEMERIS_TYPE":"0","CLASSIFICATION_TYPE":"U","GP_ID":"195258867","PERIOD":"95.592","BSTAR":"0.00010587000000","REF_FRAME":"TEME","MEAN_MOTION_DOT":"0.00001296","COUNTRY_CODE":"US","ELEMENT_SET_NO":"999","APOAPSIS":"548.071","TLE_LINE1":"1 45415U 20019BH  22034.62622533  .00001296  00000-0  10587-3 0  9993","MEAN_MOTION":"15.06404184","EPOCH":"2022-02-03T15:01:45.868512","REV_AT_EPOCH":"10454","ECCENTRICITY":"0.00012570","OBJECT_ID":"2020-019BH","MEAN_ELEMENT_THEORY":"SGP4","TIME_SYSTEM":"UTC","SEMIMAJOR_AXIS":"6925.336","LAUNCH_DATE":"2020-03-18","DECAY_DATE":null,"INCLINATION":"53.0563","CENTER_NAME":"EARTH","RCS_SIZE":"LARGE","TLE_LINE2":"2 45415  53.0563   8.2101 0001257  75.0210 285.0918 15.06404184104545","MEAN_ANOMALY":"285.0918","SITE":"AFETR","FILE":"3291273","NORAD_CAT_ID":"45415","OBJECT_TYPE":"PAYLOAD","MEAN_MOTION_DDOT":"0.0000000000000","ARG_OF_PERICENTER":"75.0210","RA_OF_ASC_NODE":"8.2101","PERIAPSIS":"546.330"},{"COUNTRY_CODE":"US","MEAN_MOTION_DOT":"0.00002271","ELEMENT_SET_NO":"999","TLE_LINE1":"1 45416U 20019BJ  22034.72573756  .00002271  00000-0  17126-3 0  9997","MEAN_MOTION":"15.06406847","EPOCH":"2022-02-03T17:25:03.725184","APOAPSIS":"548.229","OBJECT_ID":"2020-019BJ","ECCENTRICITY":"0.00014960","REV_AT_EPOCH":"10454","SEMIMAJOR_AXIS":"6925.328","TIME_SYSTEM":"UTC","MEAN_ELEMENT_THEORY":"SGP4","OBJECT_NAME":"STARLINK-1318","EPHEMERIS_TYPE":"0","GP_ID":"195257116","CLASSIFICATION_TYPE":"U","REF_FRAME":"TEME","PERIOD":"95.592","BSTAR":"0.00017126000000","MEAN_ANOMALY":"281.6036","FILE":"3291273","SITE":"AFETR","OBJECT_TYPE":"PAYLOAD","NORAD_CAT_ID":"45416","MEAN_MOTION_DDOT":"0.0000000000000","ARG_OF_PERICENTER":"78.5121","RA_OF_ASC_NODE":"7.7840","PERIAPSIS":"546.157","DECAY_DATE":null,"LAUNCH_DATE":"2020-03-18","INCLINATION":"53.0565","RCS_SIZE":"LARGE","CENTER_NAME":"EARTH","TLE_LINE2":"2 45416  53.0565   7.7840 0001496  78.5121 281.6036 15.06406847104547"}];
